#cP2019  6 25  0  0  0.00000000      96 ORBIT IGS14 HLM  IGS
## 2059 172800.00000000   900.00000000 58659 0.0000000000000
+   32   G01G02G03G04G05G06G07G08G09G10G11G12G13G14G15G16G17
+        G18G19G20G21G22G23G24G25G26G27G28G29G30G31G32  0  0
+          0  0  0  0  0  0  0  0  0  0  0  0  0  0  0  0  0
+          0  0  0  0  0  0  0  0  0  0  0  0  0  0  0  0  0
+          0  0  0  0  0  0  0  0  0  0  0  0  0  0  0  0  0
++         3  2  2  0  2  2  2  2  2  2  2  2  2  2  2  2  2
++         3  2  2  2  2  2  2  2  2  2  2  2  2  2  2  0  0
++         0  0  0  0  0  0  0  0  0  0  0  0  0  0  0  0  0
++         0  0  0  0  0  0  0  0  0  0  0  0  0  0  0  0  0
++         0  0  0  0  0  0  0  0  0  0  0  0  0  0  0  0  0
%c G  cc GPS ccc cccc cccc cccc cccc ccccc ccccc ccccc ccccc
%c cc cc ccc ccc cccc cccc cccc cccc ccccc ccccc ccccc ccccc
%f  1.2500000  1.025000000  0.00000000000  0.000000000000000
%f  0.0000000  0.000000000  0.00000000000  0.000000000000000
%i    0    0    0    0      0      0      0      0         0
%i    0    0    0    0      0      0      0      0         0
/* RAPID ORBIT COMBINATION FROM WEIGHTED AVERAGE OF:        
/* cod emr esa gfz jpl ngs sio usn whu                      
/* REFERENCED TO IGS TIME (IGST) AND TO WEIGHTED MEAN POLE: 
/* PCV:IGS14_2056 OL/AL:FES2004  NONE     Y  ORB:CMB CLK:CMB
*  2019  6 25 20 15  0.00000000
PG01  22563.480426  14280.794002   1188.511735    -50.516870 10  9  2 137       
PG02  -8080.223580 -18946.171670  17458.029858   -245.795822  8 10  8 171       
PG03  13033.795506  11920.194293  19822.242692    184.162638  4  4  2 108       
PG04  24153.764045 -11044.836689    -44.300647 999999.999999
PG05  -2915.478591 -25744.855787  -5446.619969      0.382678  7  7  7 154       
PG06   6511.296758 -13511.686273  21958.340213    167.673889  5  6  6 150       
PG07  22510.994052   3713.303035 -13725.618241    -51.748493  8  9  5 143       
PG08  12494.291866   9946.347488 -21229.393522   -148.796955  8  8  7  75       
PG09  24639.400471  -7051.474425   6954.948882    384.169902  6  5  4  77       
PG10 -11421.171093  18767.686754 -14715.999410      4.564633  5  6  4 108       
PG11  23039.141319  10083.286182  -8653.214775   -576.128699  4  9  4 121       
PG12 -10807.861770 -14887.828285  19003.656761    229.785032  7  8  5 156       
PG13  -2175.061602 -15152.367503 -21809.813116    -57.430714  6  5  3 112       
PG14 -12868.511289  17128.129346  15905.573543    -74.416115  5  4  5 112       
PG15 -14542.207147  -9156.508925 -20597.322419   -304.817716  6  6  4  92       
PG16    209.538269  25655.661298  -6103.235670    -51.023323  7  6  7 139       
PG17  19657.675972 -15296.417375   9501.614933     77.893922  5  5  5  85       
PG18  18417.881299  17669.071510  -8079.675510 999999.999999
PG19  15113.363785 -16048.131726  14555.423478   -302.048760  4  3    122       
PG20 -14369.659828   9980.019773 -20046.748047    525.614923  6  6    105       
PG21 -19935.366991   2078.170276 -16554.109923   -166.339929  4  7  6 127       
PG22  11598.453656  18624.045396  15260.078899   -722.328586  5  6  3 137       
PG23  20331.157318   3572.911106  17268.225770   -180.122210  4  6  4 100       
PG24 -22086.206516 -14947.966138  -2135.617846    -67.952495  8  7  7 125       
PG25 -14912.507263   -461.478020  21757.209980   -768.656697  6  7  5 142       
PG26  -4567.895279  25575.004150   5025.239431    235.946382  6  6  5 159       
PG27   -432.918477  16115.750529 -21158.199206   -167.642769  5  7  5 117       
PG28  12477.376479 -18202.002694 -14247.222886    767.163771  5  7  7 117       
PG29 -24266.399635   2565.003513  10468.445240    167.320416  5  7  6 117       
PG30  16381.134717  -6111.298788 -20021.028199   -130.890861  5  6  5 118       
PG31  -5657.685784  14447.325499  21508.857234     28.612206  6  6  7 137       
PG32 -18358.035256  16670.300329   9407.067981    -28.433014  6  5  3 132       
*  2019  6 25 20 30  0.00000000
PG01  22458.348350  14434.841350  -1678.425629    -50.525793 10  9  3 142       
PG02  -6278.138327 -18126.097898  19040.547446   -245.803687  8 10  7 164       
PG03  12847.783580  14110.908433  18469.665770    184.161255  4  4  3 113       
PG04  24128.779501 -10743.323987   2803.343227 999999.999999
PG05  -2617.315702 -26196.436124  -2651.045362      0.382393  7  7  7 157       
PG06   8641.764694 -12200.369109  21994.009187    167.664154  4  6  6 150       
PG07  23636.846736   4667.522094 -11434.980793    -51.755431  8  9  5 147       
PG08  10358.697937  11167.113886 -21746.351162   -148.798169  8  8  7 107       
PG09  23932.614935  -6363.822987   9576.412512    384.162764  6  5  4  82       
PG10 -11552.744599  16948.211527 -16698.073272      4.553528  5  5  4 112       
PG11  21925.801454  10323.213459 -11095.064708   -576.120818  5  9  4 136       
PG12 -10493.898533 -16978.936840  17390.234073    229.781832  8  8  4 150       
PG13    118.901705 -15992.087964 -21305.654196    -57.429625  6  5  3 128       
PG14 -14461.885041  17617.450471  13805.401012    -74.414377  5  4  4 103       
PG15 -12622.664267 -10500.013168 -21185.845693   -304.815592  6  6  4  59       
PG16    -68.244898  26144.997064  -3244.675676    -51.026125  7  6  6 126       
PG17  20530.857836 -15512.271677   6798.664835     77.899590  4  5  5 108       
PG18  17427.852043  17380.740490 -10641.427804 999999.999999
PG19  16629.833203 -16502.466754  12266.851189   -302.044278  3  2  3 119       
PG20 -14680.605183   7666.318989 -20842.498949    525.615251  5  7  2 109       
PG21 -21520.982997    962.428511 -14636.208954   -166.333157  4  7  7 124       
PG22  11416.442098  20230.739690  13186.539817   -722.333535  6  6  2 145       
PG23  18659.871566   4672.370082  18817.028041   -180.120494  4  6  4  94       
PG24 -21612.700480 -15014.937918  -4889.694331    -67.952768  8  7  7 140       
PG25 -14824.263126  -2985.723023  21640.468448   -768.659368  7  7  5 154       
PG26  -4847.327715  24835.812889   7744.450432    235.954782  6  6  4 154       
PG27  -2534.683580  17153.934796 -20139.147334   -167.652135  4  7  5  93       
PG28  12402.197428 -16357.332739 -16305.729516    767.163410  6  7  6 112       
PG29 -23111.114696   1868.115875  12930.794200    167.311639  6  7  6 127       
PG30  18155.041702  -4755.489242 -18842.861699   -130.897503  5  7  5 106       
PG31  -7746.647884  13112.160740  21751.340217     28.609898  6  6  7 130       
PG32 -19289.441166  16885.932554   6759.374571    -28.418830  6  4  3 128       
*  2019  6 25 20 45  0.00000000
PG01  22081.375846  14439.173756  -4517.100740    -50.534741 10  8  5 129       
PG02  -4294.583720 -17336.417505  20312.102598   -245.811679  8  9  7 159       
PG03  12772.721895  16136.308451  16799.169099    184.159858  4  5  4 121       
PG04  23841.932572 -10282.409641   5602.740963 999999.999999
PG05  -2324.116159 -26343.004410    190.663921      0.382192  7  7  7 152       
PG06  10825.156930 -11015.688884  21652.696132    167.654382  4  6  5 149       
PG07  24574.679145   5426.772368  -8949.906848    -51.762728  9  9  5 159       
PG08   8258.288362  12521.717489 -21888.704618   -148.799428  8  8  7 106       
PG09  23018.783721  -5487.270873  12032.890796    384.155794  6  5  4  83       
PG10 -11784.688879  14929.821941 -18389.159732      4.542411  6  5  4 114       
PG11  20566.454082  10594.067841 -13347.998390   -576.112720  5  9  4 140       
PG12 -10304.908992 -18880.739936  15474.585417    229.778860  8  8  3 147       
PG13   2295.077220 -16921.354846 -20438.172707    -57.427832  6  6  4 124       
PG14 -15808.459596  18075.210491  11469.997314    -74.412928  5  4  4 109       
PG15 -10730.299386 -11963.179444 -21419.628850   -304.813494  6  6  4 112       
PG16   -301.518710  26318.772858   -328.922273    -51.029168  6  5  6 103       
PG17  21119.115936 -15625.265834   3979.461064     77.905074  4  6  6 120       
PG18  16178.489718  17023.323338 -13025.230756 999999.999999
PG19  17870.216547 -16920.912331   9764.386159   -302.039891  4  4  4 132       
PG20 -15110.914732   5303.136419 -21282.078544    525.615556  5  7  3 107       
PG21 -22940.534982     30.707730 -12451.161807   -166.327019  5  8  7 123       
PG22  11285.892075  21602.281244  10889.895024   -722.338752  7  6  3 147       
PG23  16915.205386   5939.016745  20054.424933   -180.118998  4  6  4 110       
PG24 -20869.957872 -14973.634230  -7561.549443    -67.953847  8  7  7 141       
PG25 -14869.150282  -5473.311974  21144.587308   -768.662070  8  6  6 153       
PG26  -5179.105309  23810.939055  10328.902349    235.963179  6  6  4 154       
PG27  -4464.395167  18235.854796 -18774.168431   -167.661530  4  6  4  86       
PG28  12415.526534 -14285.943240 -18072.420286    767.163052  6  7  6 114       
PG29 -21760.519989    982.341734  15170.306056    167.303123  7  7  6 136       
PG30  19862.681923  -3567.332196 -17341.698363   -130.904136  5  7  5  97       
PG31  -9903.719330  11886.376270  21619.253784     28.607575  6  6  7 134       
PG32 -19948.865775  16986.209350   3994.722323    -28.404692  6  4  3 131       
EOF
